{
  "type": "FeatureCollection",
  "features": [
    {
      "type": "Feature",
      "properties": {
        "norad_id": 30172,
        "name": "FENGYUN 1C DEB",
        "group": "fengyun-1c-debris",
        "lat": 29.585375654313765,
        "lon": 144.41110703522594,
        "alt_km": 832.865744392685,
        "timestamp": "2025-12-06T05:40:09.515946+00:00",
        "meta_object_name": "FENGYUN 1C DEB",
        "meta_object_id": "1999-025UD",
        "meta_epoch": "2025-12-04T12:43:57.696096",
        "meta_mean_motion": 14.12401515,
        "meta_eccentricity": 0.006896,
        "meta_inclination": 99.2337,
        "meta_ra_of_asc_node": 317.3553,
        "meta_arg_of_pericenter": 225.4749,
        "meta_mean_anomaly": 257.0393,
        "meta_ephemeris_type": 0,
        "meta_classification_type": "U",
        "meta_norad_cat_id": 30172,
        "meta_element_set_no": 999,
        "meta_rev_at_epoch": 96401,
        "meta_bstar": 0.0027901,
        "meta_mean_motion_dot": 5.218e-05,
        "meta_mean_motion_ddot": 0,
        "tle_line1": "1 30172U 99025UD  25338.53052889  .00005218  00000+0  27901-2 0  9995",
        "tle_line2": "2 30172  99.2337 317.3553 0068960 225.4749 257.0393 14.12401515964010"
      },
      "geometry": {
        "type": "Point",
        "coordinates": [
          144.41110703522594,
          29.585375654313765
        ]
      }
    },
    {
      "type": "Feature",
      "properties": {
        "norad_id": 30173,
        "name": "FENGYUN 1C DEB",
        "group": "fengyun-1c-debris",
        "lat": 38.461149835527955,
        "lon": -121.79001170548611,
        "alt_km": 908.0839904071372,
        "timestamp": "2025-12-06T05:40:09.515956+00:00",
        "meta_object_name": "FENGYUN 1C DEB",
        "meta_object_id": "1999-025UE",
        "meta_epoch": "2025-12-05T03:37:03.000288",
        "meta_mean_motion": 14.11321067,
        "meta_eccentricity": 0.00799961,
        "meta_inclination": 98.9775,
        "meta_ra_of_asc_node": 49.9111,
        "meta_arg_of_pericenter": 310.2884,
        "meta_mean_anomaly": 78.7304,
        "meta_ephemeris_type": 0,
        "meta_classification_type": "U",
        "meta_norad_cat_id": 30173,
        "meta_element_set_no": 999,
        "meta_rev_at_epoch": 96442,
        "meta_bstar": 0.0029606696,
        "meta_mean_motion_dot": 5.473e-05,
        "meta_mean_motion_ddot": 0,
        "tle_line1": "1 30173U 99025UE  25339.15072917  .00005473  00000+0  29607-2 0  9997",
        "tle_line2": "2 30173  98.9775  49.9111 0079996 310.2884  78.7304 14.11321067964422"
      },
      "geometry": {
        "type": "Point",
        "coordinates": [
          -121.79001170548611,
          38.461149835527955
        ]
      }
    },
    {
      "type": "Feature",
      "properties": {
        "norad_id": 30174,
        "name": "FENGYUN 1C DEB",
        "group": "fengyun-1c-debris",
        "lat": -29.192706037362996,
        "lon": 133.410858237905,
        "alt_km": 635.9719726205685,
        "timestamp": "2025-12-06T05:40:09.515966+00:00",
        "meta_object_name": "FENGYUN 1C DEB",
        "meta_object_id": "1999-025UF",
        "meta_epoch": "2025-12-04T08:39:51.359040",
        "meta_mean_motion": 14.80152406,
        "meta_eccentricity": 0.0017845,
        "meta_inclination": 98.7763,
        "meta_ra_of_asc_node": 126.4106,
        "meta_arg_of_pericenter": 76.9692,
        "meta_mean_anomaly": 346.477,
        "meta_ephemeris_type": 0,
        "meta_classification_type": "U",
        "meta_norad_cat_id": 30174,
        "meta_element_set_no": 999,
        "meta_rev_at_epoch": 98244,
        "meta_bstar": 0.011211,
        "meta_mean_motion_dot": 0.00086338,
        "meta_mean_motion_ddot": 0,
        "tle_line1": "1 30174U 99025UF  25338.36101110  .00086338  00000+0  11211-1 0  9998",
        "tle_line2": "2 30174  98.7763 126.4106 0017845  76.9692 346.4770 14.80152406982440"
      },
      "geometry": {
        "type": "Point",
        "coordinates": [
          133.410858237905,
          -29.192706037362996
        ]
      }
    },
    {
      "type": "Feature",
      "properties": {
        "norad_id": 30175,
        "name": "FENGYUN 1C DEB",
        "group": "fengyun-1c-debris",
        "lat": 31.343075526948613,
        "lon": -137.90235523435902,
        "alt_km": 931.7266262945477,
        "timestamp": "2025-12-06T05:40:09.515976+00:00",
        "meta_object_name": "FENGYUN 1C DEB",
        "meta_object_id": "1999-025UG",
        "meta_epoch": "2025-12-05T03:11:13.663392",
        "meta_mean_motion": 13.83855751,
        "meta_eccentricity": 0.0146032,
        "meta_inclination": 99.3821,
        "meta_ra_of_asc_node": 35.2174,
        "meta_arg_of_pericenter": 232.8985,
        "meta_mean_anomaly": 182.6454,
        "meta_ephemeris_type": 0,
        "meta_classification_type": "U",
        "meta_norad_cat_id": 30175,
        "meta_element_set_no": 999,
        "meta_rev_at_epoch": 95235,
        "meta_bstar": 0.0007106197,
        "meta_mean_motion_dot": 8.1e-06,
        "meta_mean_motion_ddot": 0,
        "tle_line1": "1 30175U 99025UG  25339.13279703  .00000810  00000+0  71062-3 0  9992",
        "tle_line2": "2 30175  99.3821  35.2174 0146032 232.8985 182.6454 13.83855751952355"
      },
      "geometry": {
        "type": "Point",
        "coordinates": [
          -137.90235523435902,
          31.343075526948613
        ]
      }
    },
    {
      "type": "Feature",
      "properties": {
        "norad_id": 30177,
        "name": "FENGYUN 1C DEB",
        "group": "fengyun-1c-debris",
        "lat": 76.60577922692632,
        "lon": -114.99558515292547,
        "alt_km": 922.3105242806896,
        "timestamp": "2025-12-06T05:40:09.515987+00:00",
        "meta_object_name": "FENGYUN 1C DEB",
        "meta_object_id": "1999-025UJ",
        "meta_epoch": "2025-12-04T09:50:14.406144",
        "meta_mean_motion": 13.62788677,
        "meta_eccentricity": 0.0451239,
        "meta_inclination": 98.6256,
        "meta_ra_of_asc_node": 282.9796,
        "meta_arg_of_pericenter": 160.3426,
        "meta_mean_anomaly": 329.0958,
        "meta_ephemeris_type": 0,
        "meta_classification_type": "U",
        "meta_norad_cat_id": 30177,
        "meta_element_set_no": 999,
        "meta_rev_at_epoch": 93349,
        "meta_bstar": 0.0010972,
        "meta_mean_motion_dot": 1.669e-05,
        "meta_mean_motion_ddot": 0,
        "tle_line1": "1 30177U 99025UJ  25338.40988896  .00001669  00000+0  10972-2 0  9998",
        "tle_line2": "2 30177  98.6256 282.9796 0451239 160.3426 329.0958 13.62788677933494"
      },
      "geometry": {
        "type": "Point",
        "coordinates": [
          -114.99558515292547,
          76.60577922692632
        ]
      }
    },
    {
      "type": "Feature",
      "properties": {
        "norad_id": 30178,
        "name": "FENGYUN 1C DEB",
        "group": "fengyun-1c-debris",
        "lat": 62.1392261616183,
        "lon": -172.23625422481882,
        "alt_km": 983.0448677343102,
        "timestamp": "2025-12-06T05:40:09.515997+00:00",
        "meta_object_name": "FENGYUN 1C DEB",
        "meta_object_id": "1999-025UK",
        "meta_epoch": "2025-12-05T03:34:01.928352",
        "meta_mean_motion": 13.58655662,
        "meta_eccentricity": 0.02804296,
        "meta_inclination": 102.2602,
        "meta_ra_of_asc_node": 210.6972,
        "meta_arg_of_pericenter": 144.6015,
        "meta_mean_anomaly": 6.2523,
        "meta_ephemeris_type": 0,
        "meta_classification_type": "U",
        "meta_norad_cat_id": 30178,
        "meta_element_set_no": 999,
        "meta_rev_at_epoch": 93068,
        "meta_bstar": 0.0023227711,
        "meta_mean_motion_dot": 2.132e-05,
        "meta_mean_motion_ddot": 0,
        "tle_line1": "1 30178U 99025UK  25339.14863343  .00002132  00000+0  23228-2 0  9994",
        "tle_line2": "2 30178 102.2602 210.6972 0280429 144.6015   6.2523 13.58655662930688"
      },
      "geometry": {
        "type": "Point",
        "coordinates": [
          -172.23625422481882,
          62.1392261616183
        ]
      }
    },
    {
      "type": "Feature",
      "properties": {
        "norad_id": 30181,
        "name": "FENGYUN 1C DEB",
        "group": "fengyun-1c-debris",
        "lat": -11.666965105148279,
        "lon": -118.49265307267086,
        "alt_km": 827.4360903101742,
        "timestamp": "2025-12-06T05:40:09.516008+00:00",
        "meta_object_name": "FENGYUN 1C DEB",
        "meta_object_id": "1999-025UN",
        "meta_epoch": "2025-12-05T03:55:18.018336",
        "meta_mean_motion": 14.29157239,
        "meta_eccentricity": 0.00403285,
        "meta_inclination": 98.844,
        "meta_ra_of_asc_node": 62.2616,
        "meta_arg_of_pericenter": 22.8995,
        "meta_mean_anomaly": 52.2021,
        "meta_ephemeris_type": 0,
        "meta_classification_type": "U",
        "meta_norad_cat_id": 30181,
        "meta_element_set_no": 999,
        "meta_rev_at_epoch": 97403,
        "meta_bstar": 0.0033956291,
        "meta_mean_motion_dot": 8.656e-05,
        "meta_mean_motion_ddot": 0,
        "tle_line1": "1 30181U 99025UN  25339.16340299  .00008656  00000+0  33956-2 0  9996",
        "tle_line2": "2 30181  98.8440  62.2616 0040328  22.8995  52.2021 14.29157239974031"
      },
      "geometry": {
        "type": "Point",
        "coordinates": [
          -118.49265307267086,
          -11.666965105148279
        ]
      }
    }
  ]
}